satname,norad_id,inclination_deg,eccentricity,mean_motion_rev_per_day,perigee_km,apogee_km,l1,l2
STARLINK-1255,45399,53.0427,0.0003592,15.4877857,417.85607285558854,422.7400686104029,1 45399U 20019AR  26052.82990677  .00078556  00000+0  14324-2 0  9991,2 45399  53.0427 178.8869 0003592 198.5896 161.4980 15.48778570327974
STARLINK-1260,45404,53.1613,9.92e-05,15.30199566,474.53651261156665,475.8962179192349,1 45404U 20019AW  26052.63029816 -.00001389  00000+0 -34792-4 0  9990,2 45404  53.1613 203.8345 0000992  87.7981 272.3134 15.30199566327518
STARLINK-1263,45405,53.1608,0.0001137,15.30209944,474.40615583408544,475.9646013429756,1 45405U 20019AX  26052.81464457  .00002193  00000+0  86120-4 0  9999,2 45405  53.1608 203.0055 0001137  73.8318 286.2808 15.30209944327542
STARLINK-1265,45406,53.1608,0.0001145,15.30192687,474.4521934940085,476.02161611820975,1 45406U 20019AY  26052.69878057 -.00000557  00000+0 -67015-5 0  9998,2 45406  53.1608 203.6186 0001145  94.9930 265.1201 15.30192687327523
STARLINK-1278,45408,53.0473,0.0003167,15.52424018,407.50135103979756,411.8007359865578,1 45408U 20019BA  26052.70442488  .00093141  00000+0  14884-2 0  9999,2 45408  53.0473 207.5810 0003167 144.1107 216.0115 15.52424018327474
STARLINK-1296,45412,53.1612,0.0001137,15.30198995,474.4388436983363,475.99729664129245,1 45412U 20019BE  26052.82307482  .00000224  00000+0  19693-4 0  9996,2 45412  53.1612 202.9449 0001137  74.1304 285.9822 15.30198995327544
STARLINK-1298,45413,53.038,0.0007205,15.87983518,303.11971507524777,312.75434775451595,1 45413U 20019BF  26052.91668981  .00172325  00000+0  61099-3 0  9999,2 45413  53.0380 134.4270 0007205 309.5753  54.2396 15.87983518  5936
STARLINK-1309,45414,53.0688,0.0002109,15.51629545,410.53582382108834,413.3998900497436,1 45414U 20019BG  26052.91668981  .00084343  00000+0  13891-2 0  9998,2 45414  53.0688 199.6241 0002109 350.1273 312.1195 15.51629545  5870
STARLINK-1316,45415,53.1622,0.0001932,15.30127026,474.1088555717997,476.7570750063878,1 45415U 20019BH  26052.80308608  .00016166  00000+0  55798-3 0  9995,2 45415  53.1622 203.0917 0001932  92.2294 267.8927 15.30127026327566
STARLINK-1318,45416,53.0292,0.000827,16.04833608,255.56346082554046,266.5446828583672,1 45416U 20019BJ  26052.66448552  .00727955  27246-3  10437-2 0  9993,2 45416  53.0292 120.7649 0008270   1.2042 358.9007 16.04833608328686
STARLINK-1286,45417,53.0504,0.0001846,15.49551573,416.78234921019975,419.29149662254076,1 45417U 20019BK  26052.68199941  .00033489  00000+0  60241-3 0  9997,2 45417  53.0504 207.5596 0001846  82.7893 277.3325 15.49551573327747
STARLINK-1308,45419,53.0547,0.0001162,15.48854705,419.2853288597262,420.86523339385894,1 45419U 20019BM  26052.91668981  .00215645  00000+0  38396-2 0  9991,2 45419  53.0547 227.7375 0001162 100.8141 100.4386 15.48854705  5900
STARLINK-1329,45531,53.0503,0.0003589,15.5284327,405.99353376303225,410.8649310046376,1 45531U 20025A   26052.76102678  .00082774  00000+0  13054-2 0  9991,2 45531  53.0503 158.2980 0003589 214.3048 145.7730 15.52843270322973
STARLINK-1338,45532,53.0509,0.000423,15.51582588,409.2325808176829,414.97712542542376,1 45532U 20025B   26052.67894365  .00077779  00000+0  12845-2 0  9999,2 45532  53.0509 161.9124 0004230 274.0458  86.0067 15.51582588322918
STARLINK-1350,45535,53.0711,0.0001332,15.35624844,458.1544503748364,459.9758810317808,1 45535U 20025E   26052.39227664  .00010327  00000+0  30437-3 0  9997,2 45535  53.0711 109.6553 0001332  56.3736 303.7393 15.35624844323658
STARLINK-1362,45538,53.1575,0.000145,15.29360187,476.72964724220674,478.7178468588518,1 45538U 20025H   26052.71856384  .00000158  00000+0  17800-4 0  9994,2 45538  53.1575 175.1758 0001450  70.9680 289.1477 15.29360187322734
STARLINK-1368,45540,53.1594,0.0001377,15.30196889,474.28065046125994,476.1680661793416,1 45540U 20025K   26052.91668981 -.00005454  00000+0 -17217-3 0  9990,2 45540  53.1594 174.5933 0001377  69.3287 246.9099 15.30196889  5691
STARLINK-1371,45542,53.0533,0.0002392,15.44317028,431.7562735304791,435.014905937408,1 45542U 20025M   26052.71169357  .00083819  00000+0  17804-2 0  9993,2 45542  53.0533 165.5903 0002392 226.2773 133.8035 15.44317028322864
STARLINK-1372,45543,53.1622,0.0001318,15.30195897,474.3240468477161,476.13059368253744,1 45543U 20025N   26052.64016458 -.00000481  00000+0 -41158-5 0  9997,2 45543  53.1622 175.5698 0001318  72.3173 287.7972 15.30195897321814
STARLINK-1373,45544,53.0507,0.0004311,15.48335724,418.66294408248996,424.52567241646284,1 45544U 20025P   26052.91668981 -.00003633  00000+0 -59296-4 0  9995,2 45544  53.0507 164.5738 0004311 292.4679 203.5292 15.48335724  5938
STARLINK-1294,45551,53.0285,0.0008623,15.98835342,271.90969004535964,283.38825853662274,1 45551U 20025W   26052.91668981  .00745103  26111-3  15191-2 0  9995,2 45551  53.0285  55.8464 0008623  53.1367 230.2008 15.98835342  6000
STARLINK-1327,45555,53.0483,0.0003526,15.50701275,412.2822038449722,417.07249652472274,1 45555U 20025AA  26052.49187309  .00089303  00000+0  15186-2 0  9994,2 45555  53.0483 144.6210 0003526 341.1011  18.9866 15.50701275323137
STARLINK-1356,45564,53.0521,0.0004634,15.42986008,434.14395033732126,440.46049941093406,1 45564U 20025AK  26052.74025963  .00030674  00000+0  69192-3 0  9993,2 45564  53.0521 149.6660 0004634 335.8362  24.2424 15.42986008323088
STARLINK-1357,45565,53.0547,0.0002297,15.52098289,409.04131053428864,412.1600566261259,1 45565U 20025AL  26052.56886840  .00081221  00000+0  13162-2 0  9992,2 45565  53.0547 115.7932 0002297   0.5130 359.5881 15.52098289323554
STARLINK-1361,45567,53.0519,0.0006713,15.44730424,427.59852377571497,436.7420423339454,1 45567U 20025AN  26052.72322910  .00046870  00000+0  98971-3 0  9998,2 45567  53.0519 150.0740 0006713 332.2974  27.7673 15.44730424323088
STARLINK-1363,45568,53.044,0.0008302,15.73127566,344.3790241258721,355.55036417884185,1 45568U 20025AP  26052.91668981 -.00005929  00000+0 -37792-4 0  9998,2 45568  53.0440 116.2742 0008302   1.4355 119.9946 15.73127566  5951
STARLINK-1366,45569,53.0444,0.0008356,15.72486951,346.16834779171677,357.41540492989134,1 45569U 20025AQ  26052.45843108  .00087267  00000+0  63760-3 0  9990,2 45569  53.0444 119.2437 0008356 355.0753   5.0181 15.72486951323481
STARLINK-1376,45570,53.1599,0.0001376,15.29362771,476.7726592645022,478.65939001688184,1 45570U 20025AR  26052.51232293  .00000166  00000+0  18098-4 0  9994,2 45570  53.1599 152.8496 0001376  84.4823 275.6335 15.29362771323020
STARLINK-1320,45572,53.0491,0.0008206,15.65369399,366.6372748954109,377.7158895465509,1 45572U 20025AT  26052.41791506  .00184928  00000+0  17835-2 0  9997,2 45572  53.0491  65.8483 0008206 354.4951   5.5972 15.65369399324258
STARLINK-1321,45573,53.0491,0.0003377,15.45504459,427.5971495865788,432.19529522499124,1 45573U 20025AU  26052.60568191  .00063397  00000+0  12987-2 0  9990,2 45573  53.0491 135.3007 0003377 337.4668  22.6189 15.45504459322977
STARLINK-1331,45578,53.0536,0.000239,15.45518741,428.2271708090302,431.48139064121733,1 45578U 20025AZ  26052.80671340  .00063407  00000+0  12984-2 0  9997,2 45578  53.0536 141.0050 0002390  37.4459 322.6713 15.45518741323227
STARLINK-1333,45580,53.1596,0.0001217,15.30199286,474.38314808915584,476.0512545017509,1 45580U 20025BB  26052.49528565 -.00000090  00000+0  90937-5 0  9992,2 45580  53.1596 153.0288 0001217  96.6348 263.4792 15.30199286323024
STARLINK-1335,45581,53.0562,0.0002359,15.07226229,543.0473492692709,546.3135345383607,1 45581U 20025BC  26052.73931130  .00102620  00000+0  66583-2 0  9994,2 45581  53.0562 148.2184 0002359 121.9683 238.1536 15.07226229323106
STARLINK-1337,45582,53.0539,0.0002757,15.5517398,399.7777516992246,403.5161245627096,1 45582U 20025BD  26052.69867980  .00078737  00000+0  11418-2 0  9999,2 45582  53.0539 139.2577 0002757  36.0858 324.0338 15.55173980323225
STARLINK-1347,45586,53.0458,0.0005733,15.50800762,410.4926779954176,418.28098582108396,1 45586U 20025BH  26052.52220677  .00076469  00000+0  12985-2 0  9991,2 45586  53.0458 107.3478 0005733 344.6972  15.3862 15.50800762323656
STARLINK-1364,45589,53.0519,0.0005795,15.46588599,422.77087301236133,430.6576956509016,1 45589U 20025BL  26052.61163159  .00066205  00000+0  13054-2 0  9990,2 45589  53.0519 140.1155 0005795 355.7055   4.3900 15.46588599323205
STARLINK-1365,45590,53.052,0.0001985,15.43514198,434.3947529241368,437.0998649947933,1 45590U 20025BM  26052.48851229  .00091430  00000+0  19927-2 0  9992,2 45590  53.0520 170.6041 0001985 332.3701  27.7199 15.43514198322789
STARLINK-1443,45660,53.0807,0.0002561,15.13576177,523.5365816699468,527.0725244334199,1 45660U 20035D   26052.91668981  .00052325  00000+0  28784-2 0  9991,2 45660  53.0807 137.3435 0002561  71.2826  68.1361 15.13576177  5780
STARLINK-1446,45663,53.024,0.0001231,15.42122298,439.00748224704967,440.68606985271254,1 45663U 20035G   26052.35369880  .00018619  00000+0  43678-3 0  9996,2 45663  53.0240  76.9279 0001231 192.0082 168.0893 15.42122298317157
STARLINK-1448,45665,53.0519,0.0006189,15.49030841,415.3528394871082,423.76702875216233,1 45665U 20035J   26052.79455134  .00073521  00000+0  13296-2 0  9999,2 45665  53.0519 129.0660 0006189  17.1091 343.0124 15.49030841316459
STARLINK-1451,45668,53.0533,6.49e-05,15.09193822,538.2132076936496,539.111008217862,1 45668U 20035M   26052.46019977  .00024794  00000+0  15552-2 0  9992,2 45668  53.0533 139.2823 0000649 261.1817  98.9099 15.09193822316298
STARLINK-1452,45669,53.0315,0.0007789,15.42262096,434.12455344639784,444.7449667342662,1 45669U 20035N   26052.29890865  .00077271  00000+0  17595-2 0  9994,2 45669  53.0315  99.6528 0007789 348.4680  11.6145 15.42262096316838
STARLINK-1453,45670,53.0483,0.0008255,15.49300641,413.15988258522793,424.381577247319,1 45670U 20035P   26052.91668981  .00083238  00000+0  14874-2 0  9994,2 45670  53.0483  89.0859 0008255 341.5624  26.4794 15.49300641  5933
